{
  "type": "FeatureCollection",
  "features": [
    {
      "type": "Feature",
      "properties": {
        "norad_id": 54741,
        "name": "GALAXY 35 (G-35)",
        "group": "intelsat",
        "lat": 0.011517174510631558,
        "lon": 35.3122272603151,
        "alt_km": 35791.203193554466,
        "timestamp": "2025-12-27T02:10:15.856051+00:00",
        "meta_object_name": "GALAXY 35 (G-35)",
        "meta_object_id": "2022-170A",
        "meta_epoch": "2025-12-26T13:26:41.271360",
        "meta_mean_motion": 1.00270726,
        "meta_eccentricity": 0.0002413,
        "meta_inclination": 0.0187,
        "meta_ra_of_asc_node": 263.86,
        "meta_arg_of_pericenter": 13.4145,
        "meta_mean_anomaly": 286.6058,
        "meta_ephemeris_type": 0,
        "meta_classification_type": "U",
        "meta_norad_cat_id": 54741,
        "meta_element_set_no": 999,
        "meta_rev_at_epoch": 1116,
        "meta_bstar": 0,
        "meta_mean_motion_dot": -1.4e-06,
        "meta_mean_motion_ddot": 0,
        "tle_line1": "1 54741U 22170A   25360.56019990 -.00000140  00000+0  00000+0 0  9992",
        "tle_line2": "2 54741   0.0187 263.8600 0002413  13.4145 286.6058  1.00270726 11161"
      },
      "geometry": {
        "type": "Point",
        "coordinates": [
          35.3122272603151,
          0.011517174510631558
        ]
      }
    },
    {
      "type": "Feature",
      "properties": {
        "norad_id": 54742,
        "name": "GALAXY 36 (G-36)",
        "group": "intelsat",
        "lat": -0.006986859538259771,
        "lon": 39.39901958333701,
        "alt_km": 35785.42653077417,
        "timestamp": "2025-12-27T02:10:15.856063+00:00",
        "meta_object_name": "GALAXY 36 (G-36)",
        "meta_object_id": "2022-170B",
        "meta_epoch": "2025-12-26T13:28:40.561248",
        "meta_mean_motion": 1.00271744,
        "meta_eccentricity": 4.3e-05,
        "meta_inclination": 0.0211,
        "meta_ra_of_asc_node": 101.6024,
        "meta_arg_of_pericenter": 230.7236,
        "meta_mean_anomaly": 236.1575,
        "meta_ephemeris_type": 0,
        "meta_classification_type": "U",
        "meta_norad_cat_id": 54742,
        "meta_element_set_no": 999,
        "meta_rev_at_epoch": 1104,
        "meta_bstar": 0,
        "meta_mean_motion_dot": -1.63e-06,
        "meta_mean_motion_ddot": 0,
        "tle_line1": "1 54742U 22170B   25360.56158057 -.00000163  00000+0  00000+0 0  9996",
        "tle_line2": "2 54742   0.0211 101.6024 0000430 230.7236 236.1575  1.00271744 11043"
      },
      "geometry": {
        "type": "Point",
        "coordinates": [
          39.39901958333701,
          -0.006986859538259771
        ]
      }
    },
    {
      "type": "Feature",
      "properties": {
        "norad_id": 57493,
        "name": "GALAXY 37 (G-37)",
        "group": "intelsat",
        "lat": -0.012747204927183542,
        "lon": 1.4029851510236047,
        "alt_km": 35784.80220808465,
        "timestamp": "2025-12-27T02:10:15.856074+00:00",
        "meta_object_name": "GALAXY 37 (G-37)",
        "meta_object_id": "2023-112A",
        "meta_epoch": "2025-12-26T13:06:41.863968",
        "meta_mean_motion": 1.00271893,
        "meta_eccentricity": 0.0002181,
        "meta_inclination": 0.0115,
        "meta_ra_of_asc_node": 41.4613,
        "meta_arg_of_pericenter": 237.4973,
        "meta_mean_anomaly": 245.9984,
        "meta_ephemeris_type": 0,
        "meta_classification_type": "U",
        "meta_norad_cat_id": 57493,
        "meta_element_set_no": 999,
        "meta_rev_at_epoch": 881,
        "meta_bstar": 0,
        "meta_mean_motion_dot": 7e-07,
        "meta_mean_motion_ddot": 0,
        "tle_line1": "1 57493U 23112A   25360.54631787  .00000070  00000+0  00000+0 0  9999",
        "tle_line2": "2 57493   0.0115  41.4613 0002181 237.4973 245.9984  1.00271893  8812"
      },
      "geometry": {
        "type": "Point",
        "coordinates": [
          1.4029851510236047,
          -0.012747204927183542
        ]
      }
    }
  ]
}